{
    "links": {
        "self": "http://www.neowsapp.com/rest/v1/neo/3749033?api_key=iIulBulltgU6a56xZRHN4H3l9WmuAYTsLGpBGhQ2"
    },
    "id": "3749033",
    "neo_reference_id": "3749033",
    "name": "(2016 GM2)",
    "designation": "2016 GM2",
    "nasa_jpl_url": "http://ssd.jpl.nasa.gov/sbdb.cgi?sstr=3749033",
    "absolute_magnitude_h": 25.1,
    "estimated_diameter": {
        "kilometers": {
            "estimated_diameter_min": 0.0253837029,
            "estimated_diameter_max": 0.0567596853
        },
        "meters": {
            "estimated_diameter_min": 25.3837029364,
            "estimated_diameter_max": 56.7596852866
        },
        "miles": {
            "estimated_diameter_min": 0.0157726969,
            "estimated_diameter_max": 0.0352688224
        },
        "feet": {
            "estimated_diameter_min": 83.279867942,
            "estimated_diameter_max": 186.2194458756
        }
    },
    "is_potentially_hazardous_asteroid": false,
    "close_approach_data": [
        {
            "close_approach_date": "2016-04-16",
            "close_approach_date_full": "2016-Apr-16 15:55",
            "epoch_date_close_approach": 1460822100000,
            "relative_velocity": {
                "kilometers_per_second": "9.2273507107",
                "kilometers_per_hour": "33218.4625586121",
                "miles_per_hour": "20640.660804822"
            },
            "miss_distance": {
                "astronomical": "0.0324458758",
                "lunar": "12.6214456862",
                "kilometers": "4853833.909964546",
                "miles": "3016032.5363648948"
            },
            "orbiting_body": "Earth"
        },
        {
            "close_approach_date": "2047-09-26",
            "close_approach_date_full": "2047-Sep-26 07:14",
            "epoch_date_close_approach": 2453094840000,
            "relative_velocity": {
                "kilometers_per_second": "4.8482898931",
                "kilometers_per_hour": "17453.8436152396",
                "miles_per_hour": "10845.1396619248"
            },
            "miss_distance": {
                "astronomical": "0.7947305117",
                "lunar": "309.1501690513",
                "kilometers": "118889991.774330079",
                "miles": "73874815.2678659302"
            },
            "orbiting_body": "Juptr"
        },
        {
            "close_approach_date": "2059-09-09",
            "close_approach_date_full": "2059-Sep-09 22:00",
            "epoch_date_close_approach": 2830370400000,
            "relative_velocity": {
                "kilometers_per_second": "6.9971958886",
                "kilometers_per_hour": "25189.9051988774",
                "miles_per_hour": "15652.027483158"
            },
            "miss_distance": {
                "astronomical": "1.358224352",
                "lunar": "528.349272928",
                "kilometers": "203187470.04133024",
                "miles": "126254839.368987712"
            },
            "orbiting_body": "Juptr"
        }
    ],
    "orbital_data": {
        "orbit_id": "13",
        "orbit_determination_date": "2017-04-06 08:26:49",
        "first_observation_date": "2016-04-03",
        "last_observation_date": "2016-04-17",
        "data_arc_in_days": 14,
        "observations_used": 85,
        "orbit_uncertainty": "7",
        "minimum_orbit_intersection": ".00158774",
        "jupiter_tisserand_invariant": "3.114",
        "epoch_osculation": "2459000.5",
        "eccentricity": ".6127974422339301",
        "semi_major_axis": "2.605993091684421",
        "inclination": "2.114991084192567",
        "ascending_node_longitude": "41.5721962062205",
        "orbital_period": "1536.591112739125",
        "perihelion_distance": "1.009047190620916",
        "perihelion_argument": "184.4773198856002",
        "aphelion_distance": "4.202938992747926",
        "perihelion_time": "2459047.563104206867",
        "mean_anomaly": "348.9738282526769",
        "mean_motion": ".2342848380518513",
        "equinox": "J2000",
        "orbit_class": {
            "orbit_class_type": "APO",
            "orbit_class_description": "Near-Earth asteroid orbits which cross the Earth’s orbit similar to that of 1862 Apollo",
            "orbit_class_range": "a (semi-major axis) > 1.0 AU; q (perihelion) < 1.017 AU"
        }
    },
    "is_sentry_object": false
}